[{"OBJECT_NAME":"IRIDIUM 134","OBJECT_ID":"2017-083F","EPOCH":"2026-03-09T21:58:07.186944","MEAN_MOTION":14.34217743,"ECCENTRICITY":0.00020775,"INCLINATION":86.4026,"RA_OF_ASC_NODE":3.549,"ARG_OF_PERICENTER":86.3687,"MEAN_ANOMALY":273.7747,"EPHEMERIS_TYPE":0,"CLASSIFICATION_TYPE":"U","NORAD_CAT_ID":43075,"ELEMENT_SET_NO":999,"REV_AT_EPOCH":42987,"BSTAR":2.4162884e-5,"MEAN_MOTION_DOT":8.7e-7,"MEAN_MOTION_DDOT":0},{"OBJECT_NAME":"UNKNOWN","OBJECT_ID":"","EPOCH":"2026-02-26T10:59:09.781440","MEAN_MOTION":12.9221751,"ECCENTRICITY":0.07024324,"INCLINATION":72.9697,"RA_OF_ASC_NODE":316.2208,"ARG_OF_PERICENTER":264.7321,"MEAN_ANOMALY":87.3285,"EPHEMERIS_TYPE":0,"CLASSIFICATION_TYPE":"U","NORAD_CAT_ID":270232,"ELEMENT_SET_NO":999,"REV_AT_EPOCH":28777,"BSTAR":0.0008307914,"MEAN_MOTION_DOT":6.59e-6,"MEAN_MOTION_DDOT":0}]
